{
  "type": "FeatureCollection",
  "features": [
    {
      "type": "Feature",
      "properties": {
        "norad_id": 2807,
        "name": "OPS 7218 (TRANSIT 16)",
        "group": "nnss",
        "lat": -86.33844541519842,
        "lon": -11.383939397605543,
        "alt_km": 1093.5688894824143,
        "timestamp": "2025-12-21T05:44:51.854310+00:00",
        "meta_object_name": "OPS 7218 (TRANSIT 16)",
        "meta_object_id": "1967-048A",
        "meta_epoch": "2025-12-20T21:36:28.480896",
        "meta_mean_motion": 13.50723925,
        "meta_eccentricity": 0.00221531,
        "meta_inclination": 89.6731,
        "meta_ra_of_asc_node": 353.7455,
        "meta_arg_of_pericenter": 92.3394,
        "meta_mean_anomaly": 333.1085,
        "meta_ephemeris_type": 0,
        "meta_classification_type": "U",
        "meta_norad_cat_id": 2807,
        "meta_element_set_no": 999,
        "meta_rev_at_epoch": 88386,
        "meta_bstar": 0.00014898835,
        "meta_mean_motion_dot": 1.06e-06,
        "meta_mean_motion_ddot": 0,
        "tle_line1": "1 02807U 67048A   25354.90032964  .00000106  00000+0  14899-3 0  9994",
        "tle_line2": "2 02807  89.6731 353.7455 0022153  92.3394 333.1085 13.50723925883861"
      },
      "geometry": {
        "type": "Point",
        "coordinates": [
          -11.383939397605543,
          -86.33844541519842
        ]
      }
    },
    {
      "type": "Feature",
      "properties": {
        "norad_id": 2965,
        "name": "OPS 4947 (TRANSIT 17)",
        "group": "nnss",
        "lat": 61.28853444754487,
        "lon": 25.159929999675924,
        "alt_km": 1083.1030818467261,
        "timestamp": "2025-12-21T05:44:51.854331+00:00",
        "meta_object_name": "OPS 4947 (TRANSIT 17)",
        "meta_object_id": "1967-092A",
        "meta_epoch": "2025-12-20T19:39:31.567104",
        "meta_mean_motion": 13.53455563,
        "meta_eccentricity": 0.00467504,
        "meta_inclination": 89.2487,
        "meta_ra_of_asc_node": 23.8193,
        "meta_arg_of_pericenter": 210.4496,
        "meta_mean_anomaly": 324.1597,
        "meta_ephemeris_type": 0,
        "meta_classification_type": "U",
        "meta_norad_cat_id": 2965,
        "meta_element_set_no": 999,
        "meta_rev_at_epoch": 87206,
        "meta_bstar": 0.00018417572,
        "meta_mean_motion_dot": 1.36e-06,
        "meta_mean_motion_ddot": 0,
        "tle_line1": "1 02965U 67092A   25354.81911536  .00000136  00000+0  18418-3 0  9993",
        "tle_line2": "2 02965  89.2487  23.8193 0046750 210.4496 324.1597 13.53455563872060"
      },
      "geometry": {
        "type": "Point",
        "coordinates": [
          25.159929999675924,
          61.28853444754487
        ]
      }
    },
    {
      "type": "Feature",
      "properties": {
        "norad_id": 3133,
        "name": "OPS 7034 (TRANSIT 18)",
        "group": "nnss",
        "lat": 26.66378279781423,
        "lon": 93.6772836058399,
        "alt_km": 1010.5469725266494,
        "timestamp": "2025-12-21T05:44:51.854345+00:00",
        "meta_object_name": "OPS 7034 (TRANSIT 18)",
        "meta_object_id": "1968-012A",
        "meta_epoch": "2025-12-20T20:26:07.715616",
        "meta_mean_motion": 13.51567469,
        "meta_eccentricity": 0.00746309,
        "meta_inclination": 90.0284,
        "meta_ra_of_asc_node": 273.6619,
        "meta_arg_of_pericenter": 145.7558,
        "meta_mean_anomaly": 280.5568,
        "meta_ephemeris_type": 0,
        "meta_classification_type": "U",
        "meta_norad_cat_id": 3133,
        "meta_element_set_no": 999,
        "meta_rev_at_epoch": 57028,
        "meta_bstar": 0.00015957272,
        "meta_mean_motion_dot": 1.16e-06,
        "meta_mean_motion_ddot": 0,
        "tle_line1": "1 03133U 68012A   25354.85147819  .00000116  00000+0  15957-3 0  9996",
        "tle_line2": "2 03133  90.0284 273.6619 0074630 145.7558 280.5568 13.51567469570287"
      },
      "geometry": {
        "type": "Point",
        "coordinates": [
          93.6772836058399,
          26.66378279781423
        ]
      }
    },
    {
      "type": "Feature",
      "properties": {
        "norad_id": 4507,
        "name": "NNSS 19 (TRANSIT 19)",
        "group": "nnss",
        "lat": 63.962256203416224,
        "lon": 54.55006329592466,
        "alt_km": 1173.2858369034993,
        "timestamp": "2025-12-21T05:44:51.854356+00:00",
        "meta_object_name": "NNSS 19 (TRANSIT 19)",
        "meta_object_id": "1970-067A",
        "meta_epoch": "2025-12-20T14:56:41.152992",
        "meta_mean_motion": 13.51316588,
        "meta_eccentricity": 0.0170239,
        "meta_inclination": 90.0051,
        "meta_ra_of_asc_node": 234.5393,
        "meta_arg_of_pericenter": 270.3112,
        "meta_mean_anomaly": 87.8534,
        "meta_ephemeris_type": 0,
        "meta_classification_type": "U",
        "meta_norad_cat_id": 4507,
        "meta_element_set_no": 999,
        "meta_rev_at_epoch": 72328,
        "meta_bstar": 0.00013508,
        "meta_mean_motion_dot": 1.04e-06,
        "meta_mean_motion_ddot": 0,
        "tle_line1": "1 04507U 70067A   25354.62269853  .00000104  00000+0  13508-3 0  9990",
        "tle_line2": "2 04507  90.0051 234.5393 0170239 270.3112  87.8534 13.51316588723288"
      },
      "geometry": {
        "type": "Point",
        "coordinates": [
          54.55006329592466,
          63.962256203416224
        ]
      }
    },
    {
      "type": "Feature",
      "properties": {
        "norad_id": 6909,
        "name": "NNSS 20 (TRANSIT 20)",
        "group": "nnss",
        "lat": 85.3005890572575,
        "lon": -103.32250427659761,
        "alt_km": 888.8641198870955,
        "timestamp": "2025-12-21T05:44:51.854367+00:00",
        "meta_object_name": "NNSS 20 (TRANSIT 20)",
        "meta_object_id": "1973-081A",
        "meta_epoch": "2025-12-20T18:50:19.224672",
        "meta_mean_motion": 13.71438181,
        "meta_eccentricity": 0.01564007,
        "meta_inclination": 89.8562,
        "meta_ra_of_asc_node": 254.9337,
        "meta_arg_of_pericenter": 54.4896,
        "meta_mean_anomaly": 307.0741,
        "meta_ephemeris_type": 0,
        "meta_classification_type": "U",
        "meta_norad_cat_id": 6909,
        "meta_element_set_no": 999,
        "meta_rev_at_epoch": 80471,
        "meta_bstar": 0.00023364641,
        "meta_mean_motion_dot": 2.41e-06,
        "meta_mean_motion_ddot": 0,
        "tle_line1": "1 06909U 73081A   25354.78494473  .00000241  00000+0  23365-3 0  9996",
        "tle_line2": "2 06909  89.8562 254.9337 0156400  54.4896 307.0741 13.71438181804718"
      },
      "geometry": {
        "type": "Point",
        "coordinates": [
          -103.32250427659761,
          85.3005890572575
        ]
      }
    },
    {
      "type": "Feature",
      "properties": {
        "norad_id": 10457,
        "name": "TRANSAT",
        "group": "nnss",
        "lat": 49.09487655952196,
        "lon": 78.70270784370842,
        "alt_km": 1080.2376325010264,
        "timestamp": "2025-12-21T05:44:51.854378+00:00",
        "meta_object_name": "TRANSAT",
        "meta_object_id": "1977-106A",
        "meta_epoch": "2025-12-20T04:51:30.137760",
        "meta_mean_motion": 13.48944672,
        "meta_eccentricity": 0.00261,
        "meta_inclination": 89.648,
        "meta_ra_of_asc_node": 78.3329,
        "meta_arg_of_pericenter": 168.1289,
        "meta_mean_anomaly": 248.1407,
        "meta_ephemeris_type": 0,
        "meta_classification_type": "U",
        "meta_norad_cat_id": 10457,
        "meta_element_set_no": 999,
        "meta_rev_at_epoch": 36844,
        "meta_bstar": 0.00011685506,
        "meta_mean_motion_dot": 8.4e-07,
        "meta_mean_motion_ddot": 0,
        "tle_line1": "1 10457U 77106A   25354.20243215  .00000084  00000+0  11686-3 0  9992",
        "tle_line2": "2 10457  89.6480  78.3329 0026100 168.1289 248.1407 13.48944672368449"
      },
      "geometry": {
        "type": "Point",
        "coordinates": [
          78.70270784370842,
          49.09487655952196
        ]
      }
    },
    {
      "type": "Feature",
      "properties": {
        "norad_id": 12458,
        "name": "NOVA 1",
        "group": "nnss",
        "lat": -66.80067293099451,
        "lon": -88.39101271020192,
        "alt_km": 1191.048597233931,
        "timestamp": "2025-12-21T05:44:51.854389+00:00",
        "meta_object_name": "NOVA 1",
        "meta_object_id": "1981-044A",
        "meta_epoch": "2025-12-20T18:13:37.876224",
        "meta_mean_motion": 13.23279176,
        "meta_eccentricity": 0.00158542,
        "meta_inclination": 89.8527,
        "meta_ra_of_asc_node": 91.2719,
        "meta_arg_of_pericenter": 84.2987,
        "meta_mean_anomaly": 36.9916,
        "meta_ephemeris_type": 0,
        "meta_classification_type": "U",
        "meta_norad_cat_id": 12458,
        "meta_element_set_no": 999,
        "meta_rev_at_epoch": 15292,
        "meta_bstar": 8.1809343e-05,
        "meta_mean_motion_dot": 4.4e-07,
        "meta_mean_motion_ddot": 0,
        "tle_line1": "1 12458U 81044A   25354.75946616  .00000044  00000+0  81809-4 0  9997",
        "tle_line2": "2 12458  89.8527  91.2719 0015854  84.2987  36.9916 13.23279176152925"
      },
      "geometry": {
        "type": "Point",
        "coordinates": [
          -88.39101271020192,
          -66.80067293099451
        ]
      }
    }
  ]
}